    AK24D010  2027 12  3.3708  6.693962  0.999181  125.7701  179.6643  132.4508  20250412  11.0  2.0  A/2024 D1                                                MPC182881
    CK24E010  2026 01 20.7705  0.565922  1.000052  243.6369  108.0812   75.2386  20250412   7.0  4.0  C/2024 E1 (Wierzchos)                                    MPC182881
    CK24E020  2023 10 24.8176  7.693987  0.850776  358.1082  135.6510  155.6477  20250412   8.0  4.0  C/2024 E2 (Bok)                                          MPEC 2024-JU4
    PK24F010  2023 10 25.7524  1.859792  0.459970  229.5712  251.5414    7.0054  20250412  16.0  4.0  P/2024 F1 (PANSTARRS)                                    MPEC 2024-JU4
    CK24F020  2024 07 29.0026  3.968034  0.601104  112.8935  138.9408   13.7424  20250412  11.0  4.0  C/2024 F2 (PANSTARRS)                                    MPEC 2024-Q20
    PK24F09G  2024 05 20.3893  1.596478  0.509900  245.9301  253.0425    1.7312  20250412  14.0  4.0  P/2024 FG9 (Nanshan-Hahn)                                MPEC 2024-UA9
    CK24G010  2024 10 21.0746  3.930123  0.967805  128.2243   30.6047   95.3956  20250412  10.0  4.0  C/2024 G1 (Wierzchos)                                    MPEC 2025-GB9
    CK24G020  2025 06 13.5141  5.348254  0.992740  328.7344  171.3953  122.1272  20250412   7.0  4.0  C/2024 G2 (ATLAS)                                        MPEC 2025-GB9
    CK24G030  2025 01 13.4280  0.093542  1.000008  108.1239  220.3403  116.8471  20250412   9.0  4.0  C/2024 G3 (ATLAS)                                        MPEC 2025-A40
    CK24G040  2026 03 21.6450  4.900349  0.998443  131.4222  152.9843   33.0262  20250412   8.0  4.0  C/2024 G4 (PANSTARRS)                                    MPEC 2025-GB9
    CK24G050  2024 09  7.0405  2.952970  0.994774  209.5751  316.3944   50.3869  20250412  13.0  4.0  C/2024 G5 (Leonard)                                      MPEC 2024-JC6
    CK24G060  2026 02 20.8068  6.429568  1.002240   23.4459  250.9520  120.4562  20250412   5.5  4.0  C/2024 G6 (ATLAS)                                        MPEC 2024-RQ6
    CK24G070  2025 02 10.1255  6.027707  1.001901  289.6564  191.9600  131.5164  20250412   7.0  4.0  C/2024 G7 (ATLAS)                                        MPEC 2024-Q20
    AK24G080  2024 06 15.5909  1.172455  0.991744  249.1579   11.2482   97.4107  20250412  20.0  2.0  A/2024 G8                                                MPEC 2024-Q05
    PK24J010  2023 11 11.2768  2.636708  0.307690  200.3603  321.9405   13.1587  20250412  14.5  4.0  P/2024 J1 (PANSTARRS)                                    MPEC 2024-JU4
    CK24J020  2025 03 19.7828  1.810885  0.987711  143.1595  189.0591   79.2973  20250412  11.5  4.0  C/2024 J2 (Wierzchos)                                    MPC182882
    CK24J030  2026 11 25.3018  3.865013  1.000832   74.0894  285.9613   75.6391  20250412   5.0  4.0  C/2024 J3 (ATLAS)                                        MPC182882
    CK24J040  2025 04 25.9979  5.695203  0.999103  127.8567   19.3041  117.5313  20250412   8.0  4.0  C/2024 J4 (Lemmon)                                       MPEC 2025-GB9
    PK24K010  2024 05  8.9736  3.455626  0.495180  351.9333  251.6902    1.7862  20250412  13.5  4.0  P/2024 K1 (PANSTARRS)                                    MPEC 2024-LB4
    CK24L010  2025 04 23.1673  5.348186  0.533571  171.7968   45.1394   99.1676  20250412  10.0  4.0  C/2024 L1 (PANSTARRS)                                    MPEC 2025-GB9
    CK24L020  2025 06 12.9195  8.326279  0.982303  345.6244  266.2858  139.4877  20250412   7.5  3.2  C/2024 L2 (PANSTARRS)                                    MPEC 2024-P23
    CK24L030  2023 11 24.2365  6.858028  1.004064   59.0802  294.9934  111.5925  20250412   9.5  4.0  C/2024 L3 (PANSTARRS)                                    MPEC 2024-RQ6
    PK24L040  2024 04 14.3007  0.671944  0.698424   53.6963  139.7793   10.0467  20250412  21.5  4.0  P/2024 L4 (Rankin)                                       MPC182882
    CK24L050  2025 03 10.3963  3.432410  1.037224  290.5147  139.1769  166.5732  20250412   9.0  4.0  C/2024 L5 (ATLAS)                                        MPC182882
    CK24M010  2024 11 20.0074  1.703274  0.942942  345.5887   76.2150   73.7098  20250412  12.0  4.0  C/2024 M1 (ATLAS)                                        MPEC 2025-GB9
    CK24N010  2025 10 18.9042  4.398112  1.000813   91.2554  323.0166   88.7766  20250412  10.5  4.0  C/2024 N1 (PANSTARRS)                                    MPEC 2024-RQ6
    CK24N030  2025 04 11.4142  5.014562  1.001244   86.8823   82.6084   88.7289  20250412   8.0  4.0  C/2024 N3 (Sarneczky)                                    MPEC 2025-GB9
    CK24N040  2025 01 10.0990  5.397665  1.004456  116.6934  339.6598   49.7725  20250412   7.5  4.0  C/2024 N4 (Sarneczky)                                    MPC182882
    CK24O010  2023 01 28.6544  6.607218  1.000797  349.8979  303.3402   59.0780  20250412   8.5  4.0  C/2024 O1 (PANSTARRS)                                    MPEC 2024-PC5
    PK24O020  2024 04 20.1786  3.697638  0.499177  310.7871    6.8054   28.9762  20250412  12.0  4.0  P/2024 O2 (PANSTARRS)                                    MPEC 2024-UA9
    PK24O02C  2024 10  9.3210  0.592853  0.774200  258.5378  136.6172    7.6713  20250412  20.5  4.0  P/2024 OC2 (PANSTARRS)                                   MPEC 2025-A40
    CK24P07N  2024 12  6.4368  1.524554  0.977379   74.2733  358.5839  101.2100  20250412  15.2  4.0  C/2024 PN7 (PANSTARRS)                                   MPEC 2025-GB9
    PK24Q010  2024 06 14.5921  1.636945  0.534864  284.4597   23.1318    5.0139  20250412  17.0  4.0  P/2024 Q1 (PANSTARRS)                                    MPEC 2024-UQ8
    CK24Q030  2025 03  5.2328  2.091471  1.001383   70.1320  337.2864  121.3770  20250412  15.0  4.0  C/2024 Q3 (PANSTARRS)                                    MPEC 2024-TD8
    CK24Q040  2024 11 12.2001  5.418929  0.993153  133.0335  324.2853    3.3135  20250412  10.0  4.0  C/2024 Q4 (PANSTARRS)                                    MPC182882
    PK24R010  2024 06 15.7619  1.750355  0.493050  230.6337   84.9817   12.7366  20250412  18.0  4.0  P/2024 R1 (PANSTARRS)                                    MPEC 2024-TP3
    PK24R020  2024 10  1.8541  2.303481  0.268666  203.9621  193.0316   15.1156  20250412  15.5  4.0  P/2024 R2 (PANSTARRS)                                    MPC182883
    PK24R030  2024 05  8.1383  2.345549  0.267022  309.2201   33.2684   14.7242  20250412  15.0  4.0  P/2024 R3 (PANSTARRS)                                    MPEC 2024-YC7
    CK24R040  2027 10 26.6375  4.409487  1.002629  108.9873  345.9331   95.3585  20250412   6.5  4.0  C/2024 R4 (PANSTARRS)                                    MPEC 2024-YC7
    CK24S010  2024 10 28.4840  0.007974  0.999909   69.3171  347.3343  141.9501  20250412  15.5  4.0  C/2024 S1 (ATLAS)                                        MPC182883
    PK24S020  2024 09 16.3363  2.047836  0.593698   49.1783    8.3435    7.5252  20250412  15.0  4.0  P/2024 S2 (Rankin)                                       MPEC 2025-A40
    PK24T010  2024 09 30.4095  2.287020  0.653541  164.8689  279.7107   17.6201  20250412  14.5  4.0  P/2024 T1 (Rankin)                                       MPC182883
    PK24T020  2024 12  8.3368  1.972293  0.680492  343.8288  113.0612   12.9289  20250412  16.0  4.0  P/2024 T2 (Rankin)                                       MPEC 2025-GB9
    CK24T030  2025 03 15.2386  3.716194  0.956151  336.8890   74.8316   53.4825  20250412  11.5  4.0  C/2024 T3 (PANSTARRS)                                    MPC182883
    CK24T050  2027 05  6.3318  3.842442  1.001971  352.4299  100.6820   52.3871  20250412   5.5  4.0  C/2024 T5 (ATLAS)                                        MPC182883
    CK24U010  2024 06 30.4487  4.836025  0.990360  188.0784  270.2637  128.7550  20250412  10.0  4.0  C/2024 U1 (PANSTARRS)                                    MPC182883
    AK24U020  2026 01 14.2154  8.181075  1.003347   29.7594   56.0697  120.6707  20250412  12.1  2.0  A/2024 U2                                                MPC182883
    CK24V010  2025 04  4.1100  2.318459  0.990115  168.6669  328.1946   54.6246  20250412  14.8  4.0  C/2024 V1 (Borisov)                                      MPEC 2025-GB9
    CK24V020  2024 11  3.8240  1.242998  0.968353   13.7201  102.2020   95.9717  20250412  19.0  4.0  C/2024 V2 (Sarneczky)                                    MPEC 2024-YC7
    CK24W010  2025 03 19.0972  2.560710  0.942906  256.7366  310.7277   83.2004  20250412  15.0  4.0  C/2024 W1 (PANSTARRS)                                    MPC182883
    AK24W020  2025 02 27.4618  3.720712  1.003008  168.0107  241.9388  116.6262  20250412  15.6  2.0  A/2024 W2                                                MPC182883
    CK24X010  2025 08  3.6214  3.816446  0.598323  124.2827  352.1044    6.4592  20250412  11.3  4.0  C/2024 X1 (Fazekas)                                      MPC182884
    CK24X020  2025 07  7.8596  3.676316  0.927267  315.7777  122.5231  109.2210  20250412   9.6  4.0  C/2024 X2 (ATLAS)                                        MPEC 2025-GB9
    PK24X030  2024 09  5.7750  2.614136  0.626252  352.9420  113.3646    2.9723  20250412  14.6  4.0  P/2024 X3 (PANSTARRS)                                    MPEC 2025-GB9
    CK24X040  2025 09  1.8961  3.604797  0.641580  153.2873  258.9431   34.6691  20250412  12.6  4.0  C/2024 X4 (PANSTARRS)                                    MPEC 2025-A40
    CK24Y010  2024 11 26.8614  0.822352  0.986713  238.1418  112.5440   64.7536  20250412  17.6  4.0  C/2024 Y1 (Masek)                                        MPC182884
    AK25A010  2027 03 12.1587  5.344043  1.004097   68.0372  101.3296   33.4366  20250412  11.8  2.0  A/2025 A1                                                MPC182884
    PK25A020  2024 10  5.6589  3.446325  0.322230  278.0426  189.3213   20.7333  20250412  13.2  4.0  P/2025 A2 (PANSTARRS)                                    MPEC 2025-GB9
